NORAD_CAT_ID,OBJECT_NAME,OBJECT_TYPE,EPOCH,MEAN_MOTION,ECCENTRICITY,INCLINATION,RA_OF_ASC_NODE,ARG_OF_PERICENTER,MEAN_ANOMALY,BSTAR,MEAN_MOTION_DOT,MEAN_MOTION_DDOT,TLE_LINE0,TLE_LINE1,TLE_LINE2,SEMIMAJOR_AXIS,PERIOD,APOGEE,PERIGEE,DECAYED
53264.0,STARLINK-3950,PAYLOAD,2022-09-11 06:00:00,15.49884096,0.000117,53.2173,163.2119,76.50399999999998,96.5976,5.6524e-05,2.758e-05,0.0,0 STARLINK-3950,1 53264U 22086Y   22254.25001157  .00002758  00000-0  56524-4 0  9992,2 53264  53.2173 163.2119 0001170  76.5040  96.5976 15.49884096  8281,6795.2019999999975,92.91,417.862,416.272,0.0
53264.0,STARLINK-3950,PAYLOAD,2022-09-11 14:00:01,15.49876619,0.0001153,53.2175,161.6098,83.2164,150.8926,0.0007612999999999,0.00042981,0.0,0 STARLINK-3950,1 53264U 22086Y   22254.58334491  .00042981  00000-0  76130-3 0  9994,2 53264  53.2175 161.6098 0001153  83.2164 150.8926 15.49876619  1301,6795.224,92.911,417.872,416.305,0.0
53264.0,STARLINK-3950,PAYLOAD,2022-09-11 22:00:00,15.49925803,0.0001171,53.2174,160.0179,80.50399999999998,214.5239,-0.0020465,-0.00115075,0.0,0 STARLINK-3950,1 53264U 22086Y   22254.91667824 -.00115075  00000-0 -20465-2 0  9996,2 53264  53.2174 160.0179 0001171  80.5040 214.5239 15.49925803  1301,6795.08,92.908,417.741,416.149,0.0
53264.0,STARLINK-3950,PAYLOAD,2022-09-12 06:00:00,15.49843633,0.0001042,53.2168,158.4257,68.1986,287.7416,0.00064544,0.00036297,0.0,0 STARLINK-3950,1 53264U 22086Y   22255.25001157  .00036297  00000-0  64544-3 0  9998,2 53264  53.2168 158.4257 0001042  68.1986 287.7416 15.49843633  8441,6795.32,92.913,417.893,416.477,0.0
53264.0,STARLINK-3950,PAYLOAD,2022-09-12 14:00:01,15.49840344,9.69e-05,53.2167,156.8309,85.353,331.4744,0.0010767,0.00061038,0.0,0 STARLINK-3950,1 53264U 22086Y   22255.58334491  .00061038  00000-0  10767-2 0  9992,2 53264  53.2167 156.8309 0000969  85.3530 331.4744 15.49840344  1308,6795.33,92.913,417.853,416.536,0.0
53264.0,STARLINK-3950,PAYLOAD,2022-09-12 22:00:00,15.49894852,0.0001019,53.2165,155.2393,79.54,38.1717,-0.00022759,-0.0001335,0.0,0 STARLINK-3950,1 53264U 22086Y   22255.91667824 -.00013350  00000-0 -22759-3 0  9999,2 53264  53.2165 155.2393 0001019  79.5400  38.1717 15.49894852  1304,6795.17,92.91,417.728,416.343,0.0
53264.0,STARLINK-3950,PAYLOAD,2022-09-13 06:00:00,15.49891863,0.0001009,53.216,153.6469,72.435,106.1936,0.00046262,0.00025898,0.0,0 STARLINK-3950,1 53264U 22086Y   22256.25001157  .00025898  00000-0  46262-3 0  9991,2 53264  53.2160 153.6469 0001009  72.4350 106.1936 15.49891863  8596,6795.179,92.91,417.73,416.358,0.0
53264.0,STARLINK-3950,PAYLOAD,2022-09-13 14:00:01,15.49884212,9.02e-05,53.216,152.0521,89.8478,149.721,0.0011502,0.00065373,0.0,0 STARLINK-3950,1 53264U 22086Y   22256.58334491  .00065373  00000-0  11502-2 0  9997,2 53264  53.2160 152.0521 0000902  89.8478 149.7210 15.49884212  1302,6795.201,92.91,417.679,416.454,0.0
53264.0,STARLINK-3950,PAYLOAD,2022-09-13 20:00:01,15.50014863,0.0001027,53.2165,150.86,91.0072,104.237,-0.0044193999999999,-0.00244717,0.0,0 STARLINK-3950,1 53264U 22086Y   22256.83334491 -.00244717  00000-0 -44194-2 0  9991,2 53264  53.2165 150.8600 0001027  91.0072 104.2370 15.50014863  8685,6794.82,92.902,417.382,415.987,0.0
53264.0,STARLINK-3950,PAYLOAD,2022-09-13 22:00:00,15.50099631,8.56e-05,53.2167,150.4627,82.4852,217.9876,-0.010012,-0.00535487,0.0,0 STARLINK-3950,1 53264U 22086Y   22256.91667824 -.00535487  00000-0 -10012-1 0  9997,2 53264  53.2167 150.4627 0000856  82.4852 217.9876 15.50099631  1302,6794.571999999999,92.897,417.019,415.855,0.0
53264.0,STARLINK-3950,PAYLOAD,2022-09-14 06:00:00,15.49743417,9.54e-05,53.2169,148.874,76.9326,284.4756,-0.011459,-0.00600177,0.0,0 STARLINK-3950,1 53264U 22086Y   22257.25001157 -.00600177  00000-0 -11459-1 0  9991,2 53264  53.2169 148.8740 0000954  76.9326 284.4756 15.49743417  8752,6795.613,92.919,418.126,416.83,0.0
53264.0,STARLINK-3950,PAYLOAD,2022-09-14 14:00:01,15.49320138,0.0001069,53.2173,147.2816,83.8328,338.0781,-0.020936,-0.01057561,0.0,0 STARLINK-3950,1 53264U 22086Y   22257.58334491 -.01057561  00000-0 -20936-1 0  9991,2 53264  53.2173 147.2816 0001069  83.8328 338.0781 15.49320138  8802,6796.851,92.944,419.442,417.989,0.0
53264.0,STARLINK-3950,PAYLOAD,2022-09-14 22:00:00,15.48657262,0.000122,53.2174,145.6923,84.8526,36.7767,-0.02416,-0.01196713,0.0,0 STARLINK-3950,1 53264U 22086Y   22257.91667824 -.01196713  00000-0 -24160-1 0  9993,2 53264  53.2174 145.6923 0001220  84.8526  36.7767 15.48657262  1308,6798.79,92.984,421.485,419.826,0.0
53264.0,STARLINK-3950,PAYLOAD,2022-09-15 14:00:01,15.47045221,0.0001203,53.2173,142.5169,70.8561,167.6283,-0.022768,-0.01061283,0.0,0 STARLINK-3950,1 53264U 22086Y   22258.58334491 -.01061283  00000-0 -22768-1 0  9993,2 53264  53.2173 142.5169 0001203  70.8561 167.6283 15.47045221  1302,6803.512,93.081,426.196,424.559,0.0
53264.0,STARLINK-3950,PAYLOAD,2022-09-15 22:00:00,15.46281756,0.0001244,53.2175,140.9359,69.23100000000001,226.2864,-0.0232379999999999,-0.01055387,0.0,0 STARLINK-3950,1 53264U 22086Y   22258.91667824 -.01055387  00000-0 -23238-1 0  9990,2 53264  53.2175 140.9359 0001244  69.2310 226.2864 15.46281756  1307,6805.751,93.127,428.463,426.77,0.0
53264.0,STARLINK-3950,PAYLOAD,2022-09-16 00:00:00,15.46102,0.0001085999999999,53.2176,140.5395,84.8688,314.7604,-0.023747,-0.01070238,0.0,0 STARLINK-3950,1 53264U 22086Y   22259.00001157 -.01070238  00000-0 -23747-1 0  9999,2 53264  53.2176 140.5395 0001086  84.8688 314.7604 15.46102000  9025,6806.279,93.137,428.883,427.405,0.0
53264.0,STARLINK-3950,PAYLOAD,2022-09-16 14:00:01,15.44762127,0.0001152,53.2174,137.7712,66.6373,340.2097,-0.02448,-0.0105498,0.0,0 STARLINK-3950,1 53264U 22086Y   22259.58334491 -.01054980  00000-0 -24480-1 0  9993,2 53264  53.2174 137.7712 0001152  66.6373 340.2097 15.44762127  1300,6810.214,93.218,432.864,431.295,0.0
53264.0,STARLINK-3950,PAYLOAD,2022-09-16 22:00:00,15.44004686,0.0001431999999999,53.2174,136.1944,53.4029,47.7369,-0.025185,-0.010574,0.0,0 STARLINK-3950,1 53264U 22086Y   22259.91667824 -.01057400  00000-0 -25185-1 0  9992,2 53264  53.2174 136.1944 0001432  53.4029  47.7369 15.44004686  9165,6812.441,93.264,435.282,433.331,0.0
53264.0,STARLINK-3950,PAYLOAD,2022-09-17 14:00:01,15.42509282,0.0001365999999999,53.2169,133.0393,70.7936,136.1875,-0.027335,-0.01103319,0.0,0 STARLINK-3950,1 53264U 22086Y   22260.58334491 -.01103319  00000-0 -27335-1 0  9998,2 53264  53.2169 133.0393 0001366  70.7936 136.1875 15.42509282  1301,6816.843000000003,93.354,439.64,437.777,0.0
53264.0,STARLINK-3950,PAYLOAD,2022-09-17 22:00:00,15.41724409,0.0001349,53.2173,131.4693,68.4372,190.1122,-0.027119,-0.01068997,0.0,0 STARLINK-3950,1 53264U 22086Y   22260.91667824 -.01068997  00000-0 -27119-1 0  9996,2 53264  53.2173 131.4693 0001349  68.4372 190.1122 15.41724409  1304,6819.156999999997,93.402,441.942,440.102,0.0
53264.0,STARLINK-3950,PAYLOAD,2022-09-18 14:00:01,15.40228863,0.0001182,53.2169,128.3249,69.8796,289.0986,-0.029369,-0.01098568,0.0,0 STARLINK-3950,1 53264U 22086Y   22261.58335648 -.01098568  00000-0 -29369-1 0  9992,2 53264  53.2169 128.3249 0001182  69.8796 289.0986 15.40228863  1309,6823.57,93.493,446.242,444.629,0.0
53264.0,STARLINK-3950,PAYLOAD,2022-09-18 22:00:00,15.39448547,0.0001296999999999,53.2173,126.7604,58.7301,349.0131,-0.0293709999999999,-0.01072842,0.0,0 STARLINK-3950,1 53264U 22086Y   22261.91667824 -.01072842  00000-0 -29371-1 0  9993,2 53264  53.2173 126.7604 0001297  58.7301 349.0131 15.39448547  9473,6825.876,93.54,448.626,446.856,0.0
53264.0,STARLINK-3950,PAYLOAD,2022-09-19 14:00:01,15.37927764,0.0001333,53.2174,123.6282,73.9728,68.672,-0.030772,-0.01069451,0.0,0 STARLINK-3950,1 53264U 22086Y   22262.58334491 -.01069451  00000-0 -30772-1 0  9997,2 53264  53.2174 123.6282 0001333  73.9728  68.6720 15.37927764  1308,6830.375,93.632,453.151,451.33,0.0
53264.0,STARLINK-3950,PAYLOAD,2022-09-19 22:00:00,15.37167376,0.0001476,53.2173,122.0677,63.665,125.0601,-0.031497,-0.01067961,0.0,0 STARLINK-3950,1 53264U 22086Y   22262.91667824 -.01067961  00000-0 -31497-1 0  9992,2 53264  53.2173 122.0677 0001476  63.6650 125.0601 15.37167376  9620,6832.627,93.679,455.501,453.484,0.0
53264.0,STARLINK-3950,PAYLOAD,2022-09-20 14:00:01,15.35647598,0.0001337,53.2175,118.9463,65.1507,212.9996,-0.03302,-0.01065924,0.0,0 STARLINK-3950,1 53264U 22086Y   22263.58334491 -.01065924  00000-0 -33020-1 0  9998,2 53264  53.2175 118.9463 0001337  65.1507 212.9996 15.35647598  1300,6837.135,93.772,459.914,458.086,0.0
53264.0,STARLINK-3950,PAYLOAD,2022-09-20 22:00:01,15.34889915,0.000138,53.2175,117.3914,55.3109,266.2446,-0.033955,-0.0106941,0.0,0 STARLINK-3950,1 53264U 22086Y   22263.91668981 -.01069410  00000-0 -33955-1 0  9990,2 53264  53.2175 117.3914 0001380  55.3109 266.2446 15.34889915  1303,6839.384,93.818,462.193,460.306,0.0
53264.0,STARLINK-3950,PAYLOAD,2022-09-21 22:00:00,15.3261212,0.0001799,53.2176,112.7312,37.7405,48.3037,-0.036542,-0.01070329,0.0,0 STARLINK-3950,1 53264U 22086Y   22264.91667824 -.01070329  00000-0 -36542-1 0  9992,2 53264  53.2176 112.7312 0001799  37.7405  48.3037 15.32612120  1307,6846.159000000002,93.957,469.256,466.793,0.0
53264.0,STARLINK-3950,PAYLOAD,2022-09-22 14:00:01,15.31113388,0.0001565999999999,53.2176,109.6299,57.1449,107.3624,-0.0393,-0.01095687,0.0,0 STARLINK-3950,1 53264U 22086Y   22265.58334491 -.01095687  00000-0 -39300-1 0  9996,2 53264  53.2176 109.6299 0001566  57.1449 107.3624 15.31113388  1301,6850.626,94.049,473.564,471.418,0.0
53264.0,STARLINK-3950,PAYLOAD,2022-09-22 22:00:00,15.30346658,0.0001479,53.2178,108.0857,67.3704,135.0064,-0.039864,-0.01085943,0.0,0 STARLINK-3950,1 53264U 22086Y   22265.91667824 -.01085943  00000-0 -39864-1 0  9991,2 53264  53.2178 108.0857 0001479  67.3704 135.0064 15.30346658 10084,6852.9140000000025,94.096,475.793,473.766,0.0
